[{"OBJECT_NAME":"BUFENG 1A","OBJECT_ID":"2019-032A","EPOCH":"2026-03-09T22:03:27.507168","MEAN_MOTION":15.26012088,"ECCENTRICITY":0.00054719,"INCLINATION":44.9758,"RA_OF_ASC_NODE":238.6688,"ARG_OF_PERICENTER":55.4463,"MEAN_ANOMALY":304.6935,"EPHEMERIS_TYPE":0,"CLASSIFICATION_TYPE":"U","NORAD_CAT_ID":44310,"ELEMENT_SET_NO":999,"REV_AT_EPOCH":37201,"BSTAR":0.00062413703,"MEAN_MOTION_DOT":0.00016103,"MEAN_MOTION_DDOT":0},{"OBJECT_NAME":"STARLINK-31882","OBJECT_ID":"2024-097W","EPOCH":"2026-03-09T12:50:52.612224","MEAN_MOTION":15.27575603,"ECCENTRICITY":8.526e-5,"INCLINATION":43.003,"RA_OF_ASC_NODE":268.257,"ARG_OF_PERICENTER":237.0873,"MEAN_ANOMALY":122.9896,"EPHEMERIS_TYPE":0,"CLASSIFICATION_TYPE":"U","NORAD_CAT_ID":59855,"ELEMENT_SET_NO":999,"REV_AT_EPOCH":10197,"BSTAR":-1.635505e-6,"MEAN_MOTION_DOT":-3.07e-6,"MEAN_MOTION_DDOT":0}]
